{"type": "FeatureCollection", "features": [ {"type": "Feature", "properties": {"norad_id": 37216, "name": "COSMO-SKYMED 4", "group": "resource", "lat": -55.54985140468789, "lon": -16.12370706685682, "alt_km": 630.4808543503786, "timestamp": "2025-12-20T07:33:50.460434+00:00", "meta": {"OBJECT_NAME": "COSMO-SKYMED 4", "OBJECT_ID": "2010-060A", "EPOCH": "2025-12-19T22:23:59.858016", "MEAN_MOTION": 14.82153902, "ECCENTRICITY": 0.00014074, "INCLINATION": 97.8798, "RA_OF_ASC_NODE": 175.1478, "ARG_OF_PERICENTER": 83.1812, "MEAN_ANOMALY": 276.9561, "EPHEMERIS_TYPE": 0, "CLASSIFICATION_TYPE": "U", "NORAD_CAT_ID": 37216, "ELEMENT_SET_NO": 999, "REV_AT_EPOCH": 81801, "BSTAR": 0.00011291685, "MEAN_MOTION_DOT": 8.47e-06, "MEAN_MOTION_DDOT": 0}, "tle": {"line1": "1 37216U 10060A   25353.93333169  .00000847  00000+0  11292-3 0  9997", "line2": "2 37216  97.8798 175.1478 0001407  83.1812 276.9561 14.82153902818016"}}, "geometry": {"type": "Point", "coordinates": [-16.12370706685682, -55.54985140468789]}}, {"type": "Feature", "properties": {"norad_id": 37387, "name": "RESOURCESAT-2", "group": "resource", "lat": -7.3735525174973535, "lon": 58.979545419911325, "alt_km": 819.9525503920877, "timestamp": "2025-12-20T07:33:50.460445+00:00", "meta": {"OBJECT_NAME": "RESOURCESAT-2", "OBJECT_ID": "2011-015A", "EPOCH": "2025-12-19T21:27:49.882176", "MEAN_MOTION": 14.21599931, "ECCENTRICITY": 0.0006096, "INCLINATION": 98.7868, "RA_OF_ASC_NODE": 57.4138, "ARG_OF_PERICENTER": 23.4312, "MEAN_ANOMALY": 336.7142, "EPHEMERIS_TYPE": 0, "CLASSIFICATION_TYPE": "U", "NORAD_CAT_ID": 37387, "ELEMENT_SET_NO": 999, "REV_AT_EPOCH": 76070, "BSTAR": 6.7878754e-05, "MEAN_MOTION_DOT": 1.04e-06, "MEAN_MOTION_DDOT": 0}, "tle": {"line1": "1 37387U 11015A   25353.89432734  .00000104  00000+0  67879-4 0  9999", "line2": "2 37387  98.7868  57.4138 0006096  23.4312 336.7142 14.21599931760700"}}, "geometry": {"type": "Point", "coordinates": [58.979545419911325, -7.3735525174973535]}}, {"type": "Feature", "properties": {"norad_id": 37781, "name": "HAIYANG-2A", "group": "resource", "lat": -43.19991184060435, "lon": 4.020512192182645, "alt_km": 975.1171376650937, "timestamp": "2025-12-20T07:33:50.460455+00:00", "meta": {"OBJECT_NAME": "HAIYANG-2A", "OBJECT_ID": "2011-043A", "EPOCH": "2025-12-19T23:04:08.520672", "MEAN_MOTION": 13.78836015, "ECCENTRICITY": 0.00016275, "INCLINATION": 99.3371, "RA_OF_ASC_NODE": 354.7845, "ARG_OF_PERICENTER": 74.0238, "MEAN_ANOMALY": 286.1093, "EPHEMERIS_TYPE": 0, "CLASSIFICATION_TYPE": "U", "NORAD_CAT_ID": 37781, "ELEMENT_SET_NO": 999, "REV_AT_EPOCH": 72198, "BSTAR": 7.1226122e-05, "MEAN_MOTION_DOT": 2.8e-07, "MEAN_MOTION_DDOT": 0}, "tle": {"line1": "1 37781U 11043A   25353.96120973  .00000028  00000+0  71226-4 0  9991", "line2": "2 37781  99.3371 354.7845 0001627  74.0238 286.1093 13.78836015721984"}}, "geometry": {"type": "Point", "coordinates": [4.020512192182645, -43.19991184060435]}}, {"type": "Feature", "properties": {"norad_id": 37791, "name": "RASAT", "group": "resource", "lat": -21.937397235421574, "lon": 86.73454231938899, "alt_km": 666.3991075004942, "timestamp": "2025-12-20T07:33:50.460466+00:00", "meta": {"OBJECT_NAME": "RASAT", "OBJECT_ID": "2011-044D", "EPOCH": "2025-12-19T22:26:05.347104", "MEAN_MOTION": 14.67919382, "ECCENTRICITY": 0.00216032, "INCLINATION": 98.0651, "RA_OF_ASC_NODE": 83.086, "ARG_OF_PERICENTER": 43.2489, "MEAN_ANOMALY": 85.9874, "EPHEMERIS_TYPE": 0, "CLASSIFICATION_TYPE": "U", "NORAD_CAT_ID": 37791, "ELEMENT_SET_NO": 999, "REV_AT_EPOCH": 76688, "BSTAR": 0.0001149322, "MEAN_MOTION_DOT": 6.11e-06, "MEAN_MOTION_DDOT": 0}, "tle": {"line1": "1 37791U 11044D   25353.93478411  .00000611  00000+0  11493-3 0  9990", "line2": "2 37791  98.0651  83.0860 0021603  43.2489  85.9874 14.67919382766881"}}, "geometry": {"type": "Point", "coordinates": [86.73454231938899, -21.937397235421574]}}, {"type": "Feature", "properties": {"norad_id": 37841, "name": "SRMSAT", "group": "resource", "lat": 14.683669602604928, "lon": -164.07179360139392, "alt_km": 850.5620943192616, "timestamp": "2025-12-20T07:33:50.460477+00:00", "meta": {"OBJECT_NAME": "SRMSAT", "OBJECT_ID": "2011-058D", "EPOCH": "2025-12-19T14:40:57.595008", "MEAN_MOTION": 14.11513672, "ECCENTRICITY": 0.0011928, "INCLINATION": 19.9723, "RA_OF_ASC_NODE": 66.3596, "ARG_OF_PERICENTER": 29.0252, "MEAN_ANOMALY": 120.8933, "EPHEMERIS_TYPE": 0, "CLASSIFICATION_TYPE": "U", "NORAD_CAT_ID": 37841, "ELEMENT_SET_NO": 999, "REV_AT_EPOCH": 73241, "BSTAR": 6.4258e-05, "MEAN_MOTION_DOT": 3.83e-06, "MEAN_MOTION_DDOT": 0}, "tle": {"line1": "1 37841U 11058D   25353.61177772  .00000383  00000+0  64258-4 0  9996", "line2": "2 37841  19.9723  66.3596 0011928  29.0252 120.8933 14.11513672732416"}}, "geometry": {"type": "Point", "coordinates": [-164.07179360139392, 14.683669602604928]}}, {"type": "Feature", "properties": {"norad_id": 38012, "name": "PLEIADES 1A", "group": "resource", "lat": -57.85867783472201, "lon": -126.27092940414147, "alt_km": 705.702695742184, "timestamp": "2025-12-20T07:33:50.460488+00:00", "meta": {"OBJECT_NAME": "PLEIADES 1A", "OBJECT_ID": "2011-076F", "EPOCH": "2025-12-19T23:01:51.427200", "MEAN_MOTION": 14.58567134, "ECCENTRICITY": 0.0001171, "INCLINATION": 98.1822, "RA_OF_ASC_NODE": 66.6171, "ARG_OF_PERICENTER": 73.5048, "MEAN_ANOMALY": 99.4341, "EPHEMERIS_TYPE": 0, "CLASSIFICATION_TYPE": "U", "NORAD_CAT_ID": 38012, "ELEMENT_SET_NO": 999, "REV_AT_EPOCH": 74586, "BSTAR": 4.6488893e-05, "MEAN_MOTION_DOT": 1.71e-06, "MEAN_MOTION_DDOT": 0}, "tle": {"line1": "1 38012U 11076F   25353.95962300  .00000171  00000+0  46489-4 0  9994", "line2": "2 38012  98.1822  66.6171 0001171  73.5048  99.4341 14.58567134745864"}}, "geometry": {"type": "Point", "coordinates": [-126.27092940414147, -57.85867783472201]}}, {"type": "Feature", "properties": {"norad_id": 38038, "name": "ZIYUAN 1-02C (ZY 1-02C)", "group": "resource", "lat": -52.20905225764116, "lon": 71.2193333600079, "alt_km": 777.2360750891849, "timestamp": "2025-12-20T07:33:50.460499+00:00", "meta": {"OBJECT_NAME": "ZIYUAN 1-02C (ZY 1-02C)", "OBJECT_ID": "2011-079A", "EPOCH": "2025-12-19T22:35:35.498112", "MEAN_MOTION": 14.38019068, "ECCENTRICITY": 0.00074288, "INCLINATION": 98.4332, "RA_OF_ASC_NODE": 59.8226, "ARG_OF_PERICENTER": 119.442, "MEAN_ANOMALY": 53.7083, "EPHEMERIS_TYPE": 0, "CLASSIFICATION_TYPE": "U", "NORAD_CAT_ID": 38038, "ELEMENT_SET_NO": 999, "REV_AT_EPOCH": 73344, "BSTAR": 8.5034878e-05, "MEAN_MOTION_DOT": 2.14e-06, "MEAN_MOTION_DDOT": 0}, "tle": {"line1": "1 38038U 11079A   25353.94138308  .00000214  00000+0  85035-4 0  9995", "line2": "2 38038  98.4332  59.8226 0007428 119.4420  53.7083 14.38019068733444"}}, "geometry": {"type": "Point", "coordinates": [71.2193333600079, -52.20905225764116]}}, {"type": "Feature", "properties": {"norad_id": 38338, "name": "ARIRANG-3 (KOMPSAT-3)", "group": "resource", "lat": -41.61063277712648, "lon": 121.48168304319769, "alt_km": 694.2326668047299, "timestamp": "2025-12-20T07:33:50.460510+00:00", "meta": {"OBJECT_NAME": "ARIRANG-3 (KOMPSAT-3)", "OBJECT_ID": "2012-025B", "EPOCH": "2025-12-19T22:20:10.953312", "MEAN_MOTION": 14.61721435, "ECCENTRICITY": 0.00049203, "INCLINATION": 98.3333, "RA_OF_ASC_NODE": 308.5745, "ARG_OF_PERICENTER": 313.8086, "MEAN_ANOMALY": 46.2707, "EPHEMERIS_TYPE": 0, "CLASSIFICATION_TYPE": "U", "NORAD_CAT_ID": 38338, "ELEMENT_SET_NO": 999, "REV_AT_EPOCH": 72515, "BSTAR": 8.7336418e-05, "MEAN_MOTION_DOT": 3.87e-06, "MEAN_MOTION_DDOT": 0}, "tle": {"line1": "1 38338U 12025B   25353.93068233  .00000387  00000+0  87336-4 0  9995", "line2": "2 38338  98.3333 308.5745 0004920 313.8086  46.2707 14.61721435725152"}}, "geometry": {"type": "Point", "coordinates": [121.48168304319769, -41.61063277712648]}}, {"type": "Feature", "properties": {"norad_id": 38709, "name": "EXACTVIEW-1 (ADS-1B)", "group": "resource", "lat": -60.961830235327646, "lon": 119.38126583888582, "alt_km": 809.7670344579901, "timestamp": "2025-12-20T07:33:50.460520+00:00", "meta": {"OBJECT_NAME": "EXACTVIEW-1 (ADS-1B)", "OBJECT_ID": "2012-039C", "EPOCH": "2025-12-19T21:44:37.095360", "MEAN_MOTION": 14.24910684, "ECCENTRICITY": 0.00103128, "INCLINATION": 98.9639, "RA_OF_ASC_NODE": 102.4464, "ARG_OF_PERICENTER": 333.0282, "MEAN_ANOMALY": 27.036, "EPHEMERIS_TYPE": 0, "CLASSIFICATION_TYPE": "U", "NORAD_CAT_ID": 38709, "ELEMENT_SET_NO": 999, "REV_AT_EPOCH": 69717, "BSTAR": 6.0667149e-05, "MEAN_MOTION_DOT": 9.5e-07, "MEAN_MOTION_DDOT": 0}, "tle": {"line1": "1 38709U 12039C   25353.90598490  .00000095  00000+0  60667-4 0  9996", "line2": "2 38709  98.9639 102.4464 0010312 333.0282  27.0360 14.24910684697179"}}, "geometry": {"type": "Point", "coordinates": [119.38126583888582, -60.961830235327646]}}, {"type": "Feature", "properties": {"norad_id": 38755, "name": "SPOT 6", "group": "resource", "lat": 17.134184248689074, "lon": -118.50507866061066, "alt_km": 698.3236248980766, "timestamp": "2025-12-20T07:33:50.460530+00:00", "meta": {"OBJECT_NAME": "SPOT 6", "OBJECT_ID": "2012-047A", "EPOCH": "2025-12-19T22:35:19.921056", "MEAN_MOTION": 14.58537372, "ECCENTRICITY": 0.00013267, "INCLINATION": 98.1571, "RA_OF_ASC_NODE": 58.5935, "ARG_OF_PERICENTER": 79.0893, "MEAN_ANOMALY": 281.0455, "EPHEMERIS_TYPE": 0, "CLASSIFICATION_TYPE": "U", "NORAD_CAT_ID": 38755, "ELEMENT_SET_NO": 999, "REV_AT_EPOCH": 70692, "BSTAR": 1.1264146e-05, "MEAN_MOTION_DOT": 7e-08, "MEAN_MOTION_DDOT": 0}, "tle": {"line1": "1 38755U 12047A   25353.94120279  .00000007  00000+0  11264-4 0  9998", "line2": "2 38755  98.1571  58.5935 0001326  79.0893 281.0455 14.58537372706928"}}, "geometry": {"type": "Point", "coordinates": [-118.50507866061066, 17.134184248689074]}}]}